start=new Date('2022-07-01T00:00:00.000Z').valueOf();
sats=[{"COUNTRY_CODE":"US","MEAN_ELEMENT_THEORY":"SGP4","BSTAR":"0.00011225000000","GP_ID":"207176870","EPHEMERIS_TYPE":"0","TIME_SYSTEM":"UTC","OBJECT_NAME":"STARLINK-2596","PERIAPSIS":"546.111","MEAN_MOTION_DOT":"0.00001391","ELEMENT_SET_NO":"999","INCLINATION":"53.0546","EPOCH":"2022-06-30T16:55:41.894400","DECAY_DATE":null,"TLE_LINE1":"1 48409U 21038BJ  22181.70534600  .00001391  00000-0  11225-3 0  9996","PERIOD":"95.592","APOAPSIS":"548.326","OBJECT_ID":"2021-038BJ","MEAN_MOTION_DDOT":"0.0000000000000","NORAD_CAT_ID":"48409","SITE":"AFETR","RCS_SIZE":"LARGE","SEMIMAJOR_AXIS":"6925.353","OBJECT_TYPE":"PAYLOAD","ECCENTRICITY":"0.00015990","REF_FRAME":"TEME","FILE":"3505946","CENTER_NAME":"EARTH","MEAN_ANOMALY":"312.9503","REV_AT_EPOCH":"6407","ARG_OF_PERICENTER":"47.1620","CLASSIFICATION_TYPE":"U","LAUNCH_DATE":"2021-05-04","RA_OF_ASC_NODE":"277.9690","TLE_LINE2":"2 48409  53.0546 277.9690 0001599  47.1620 312.9503 15.06398478 64075","MEAN_MOTION":"15.06398478"},{"PERIAPSIS":"546.217","EPHEMERIS_TYPE":"0","OBJECT_NAME":"STARLINK-2563","TIME_SYSTEM":"UTC","GP_ID":"207147840","BSTAR":"0.00007366900000","MEAN_ELEMENT_THEORY":"SGP4","COUNTRY_CODE":"US","MEAN_MOTION_DOT":"0.00000816","EPOCH":"2022-06-30T12:15:43.964064","INCLINATION":"53.0545","ELEMENT_SET_NO":"999","APOAPSIS":"548.287","OBJECT_ID":"2021-038BK","PERIOD":"95.593","TLE_LINE1":"1 48410U 21038BK  22181.51092551  .00000816  00000-0  73669-4 0  9993","DECAY_DATE":null,"MEAN_MOTION_DDOT":"0.0000000000000","OBJECT_TYPE":"PAYLOAD","SEMIMAJOR_AXIS":"6925.387","SITE":"AFETR","RCS_SIZE":"LARGE","NORAD_CAT_ID":"48410","CENTER_NAME":"EARTH","MEAN_ANOMALY":"307.1580","FILE":"3505769","REF_FRAME":"TEME","ECCENTRICITY":"0.00014940","TLE_LINE2":"2 48410  53.0545 228.8414 0001494  52.9545 307.1580 15.06387479 64743","MEAN_MOTION":"15.06387479","RA_OF_ASC_NODE":"228.8414","LAUNCH_DATE":"2021-05-04","CLASSIFICATION_TYPE":"U","ARG_OF_PERICENTER":"52.9545","REV_AT_EPOCH":"6474"},{"REV_AT_EPOCH":"6481","ARG_OF_PERICENTER":"72.4050","RA_OF_ASC_NODE":"223.7582","TLE_LINE2":"2 48411  53.0540 223.7582 0001390  72.4050 287.7091 15.06390479 64814","MEAN_MOTION":"15.06390479","LAUNCH_DATE":"2021-05-04","CLASSIFICATION_TYPE":"U","ECCENTRICITY":"0.00013900","CENTER_NAME":"EARTH","MEAN_ANOMALY":"287.7091","REF_FRAME":"TEME","FILE":"3505769","RCS_SIZE":"LARGE","SITE":"AFETR","NORAD_CAT_ID":"48411","OBJECT_TYPE":"PAYLOAD","SEMIMAJOR_AXIS":"6925.378","MEAN_MOTION_DDOT":"0.0000000000000","PERIOD":"95.593","OBJECT_ID":"2021-038BL","APOAPSIS":"548.205","DECAY_DATE":null,"TLE_LINE1":"1 48411U 21038BL  22181.52796095  .00000840  00000-0  75320-4 0  9992","ELEMENT_SET_NO":"999","EPOCH":"2022-06-30T12:40:15.826080","INCLINATION":"53.0540","MEAN_MOTION_DOT":"0.00000840","MEAN_ELEMENT_THEORY":"SGP4","BSTAR":"0.00007532000000","COUNTRY_CODE":"US","PERIAPSIS":"546.280","GP_ID":"207148091","OBJECT_NAME":"STARLINK-2505","EPHEMERIS_TYPE":"0","TIME_SYSTEM":"UTC"},{"MEAN_MOTION_DOT":"0.00001944","COUNTRY_CODE":"US","MEAN_ELEMENT_THEORY":"SGP4","BSTAR":"0.00014942000000","GP_ID":"207176622","EPHEMERIS_TYPE":"0","TIME_SYSTEM":"UTC","OBJECT_NAME":"STARLINK-2581","PERIAPSIS":"545.954","DECAY_DATE":null,"TLE_LINE1":"1 48412U 21038BM  22181.67914201  .00001944  00000-0  14942-3 0  9998","PERIOD":"95.592","APOAPSIS":"548.493","OBJECT_ID":"2021-038BM","ELEMENT_SET_NO":"999","INCLINATION":"53.0542","EPOCH":"2022-06-30T16:17:57.869664","NORAD_CAT_ID":"48412","SITE":"AFETR","RCS_SIZE":"LARGE","SEMIMAJOR_AXIS":"6925.359","OBJECT_TYPE":"PAYLOAD","MEAN_MOTION_DDOT":"0.0000000000000","REV_AT_EPOCH":"6483","ARG_OF_PERICENTER":"57.7197","CLASSIFICATION_TYPE":"U","LAUNCH_DATE":"2021-05-04","RA_OF_ASC_NODE":"223.5102","MEAN_MOTION":"15.06396633","TLE_LINE2":"2 48412  53.0542 223.5102 0001833  57.7197 302.3970 15.06396633 64833","ECCENTRICITY":"0.00018330","REF_FRAME":"TEME","FILE":"3505946","CENTER_NAME":"EARTH","MEAN_ANOMALY":"302.3970"},{"ECCENTRICITY":"0.00019030","CENTER_NAME":"EARTH","MEAN_ANOMALY":"291.7472","REF_FRAME":"TEME","FILE":"3505946","REV_AT_EPOCH":"6336","ARG_OF_PERICENTER":"68.3719","RA_OF_ASC_NODE":"118.6478","MEAN_MOTION":"15.06393021","TLE_LINE2":"2 48428  53.0559 118.6478 0001903  68.3719 291.7472 15.06393021 63367","LAUNCH_DATE":"2021-05-09","CLASSIFICATION_TYPE":"U","MEAN_MOTION_DDOT":"0.0000000000000","RCS_SIZE":"LARGE","SITE":"AFETR","NORAD_CAT_ID":"48428","OBJECT_TYPE":"PAYLOAD","SEMIMAJOR_AXIS":"6925.370","ELEMENT_SET_NO":"999","EPOCH":"2022-06-30T13:18:05.040864","INCLINATION":"53.0559","PERIOD":"95.593","APOAPSIS":"548.553","OBJECT_ID":"2021-040A","DECAY_DATE":null,"TLE_LINE1":"1 48428U 21040A   22181.55422501  .00001257  00000-0  10327-3 0  9992","MEAN_ELEMENT_THEORY":"SGP4","BSTAR":"0.00010327000000","COUNTRY_CODE":"US","PERIAPSIS":"545.917","GP_ID":"207177123","EPHEMERIS_TYPE":"0","TIME_SYSTEM":"UTC","OBJECT_NAME":"STARLINK-2461","MEAN_MOTION_DOT":"0.00001257"},{"ELEMENT_SET_NO":"999","EPOCH":"2022-06-30T06:12:08.986176","INCLINATION":"53.0548","PERIOD":"95.593","APOAPSIS":"548.357","OBJECT_ID":"2021-040B","DECAY_DATE":null,"TLE_LINE1":"1 48429U 21040B   22181.25843734  .00001008  00000-0  86608-4 0  9995","MEAN_ELEMENT_THEORY":"SGP4","BSTAR":"0.00008660800000","COUNTRY_CODE":"US","PERIAPSIS":"546.159","GP_ID":"207147091","TIME_SYSTEM":"UTC","EPHEMERIS_TYPE":"0","OBJECT_NAME":"STARLINK-2749","MEAN_MOTION_DOT":"0.00001008","ECCENTRICITY":"0.00015870","MEAN_ANOMALY":"289.6151","CENTER_NAME":"EARTH","REF_FRAME":"TEME","FILE":"3505769","REV_AT_EPOCH":"6373","ARG_OF_PERICENTER":"70.5009","RA_OF_ASC_NODE":"89.9731","MEAN_MOTION":"15.06385404","TLE_LINE2":"2 48429  53.0548  89.9731 0001587  70.5009 289.6151 15.06385404 63730","CLASSIFICATION_TYPE":"U","LAUNCH_DATE":"2021-05-09","MEAN_MOTION_DDOT":"0.0000000000000","SITE":"AFETR","RCS_SIZE":"LARGE","NORAD_CAT_ID":"48429","OBJECT_TYPE":"PAYLOAD","SEMIMAJOR_AXIS":"6925.393"},{"MEAN_MOTION_DDOT":"0.0000000000000","NORAD_CAT_ID":"48430","RCS_SIZE":"LARGE","SITE":"AFETR","SEMIMAJOR_AXIS":"6925.378","OBJECT_TYPE":"PAYLOAD","ECCENTRICITY":"0.00017630","REF_FRAME":"TEME","FILE":"3505946","CENTER_NAME":"EARTH","MEAN_ANOMALY":"290.0741","REV_AT_EPOCH":"6382","ARG_OF_PERICENTER":"70.0438","CLASSIFICATION_TYPE":"U","LAUNCH_DATE":"2021-05-09","RA_OF_ASC_NODE":"87.4408","TLE_LINE2":"2 48430  53.0554  87.4408 0001763  70.0438 290.0741 15.06390414 63828","MEAN_MOTION":"15.06390414","COUNTRY_CODE":"US","MEAN_ELEMENT_THEORY":"SGP4","BSTAR":"0.00003790300000","GP_ID":"207175623","TIME_SYSTEM":"UTC","EPHEMERIS_TYPE":"0","OBJECT_NAME":"STARLINK-2729","PERIAPSIS":"546.022","MEAN_MOTION_DOT":"0.00000283","ELEMENT_SET_NO":"999","INCLINATION":"53.0554","EPOCH":"2022-06-30T19:42:51.830208","DECAY_DATE":null,"TLE_LINE1":"1 48430U 21040C   22181.82143322  .00000283  00000-0  37903-4 0  9994","PERIOD":"95.593","OBJECT_ID":"2021-040C","APOAPSIS":"548.464"},{"SEMIMAJOR_AXIS":"6925.409","OBJECT_TYPE":"PAYLOAD","NORAD_CAT_ID":"48431","SITE":"AFETR","RCS_SIZE":"LARGE","MEAN_MOTION_DDOT":"0.0000000000000","CLASSIFICATION_TYPE":"U","LAUNCH_DATE":"2021-05-09","TLE_LINE2":"2 48431  53.0563  82.6782 0001745  78.5217 281.5968 15.06380185 63885","MEAN_MOTION":"15.06380185","RA_OF_ASC_NODE":"82.6782","ARG_OF_PERICENTER":"78.5217","REV_AT_EPOCH":"6388","FILE":"3505946","REF_FRAME":"TEME","MEAN_ANOMALY":"281.5968","CENTER_NAME":"EARTH","ECCENTRICITY":"0.00017450","MEAN_MOTION_DOT":"0.00000862","EPHEMERIS_TYPE":"0","OBJECT_NAME":"STARLINK-2700","TIME_SYSTEM":"UTC","GP_ID":"207175873","PERIAPSIS":"546.066","COUNTRY_CODE":"US","BSTAR":"0.00007683100000","MEAN_ELEMENT_THEORY":"SGP4","TLE_LINE1":"1 48431U 21040D   22181.76846520  .00000862  00000-0  76831-4 0  9994","DECAY_DATE":null,"OBJECT_ID":"2021-040D","APOAPSIS":"548.483","PERIOD":"95.593","INCLINATION":"53.0563","EPOCH":"2022-06-30T18:26:35.393280","ELEMENT_SET_NO":"999"},{"REV_AT_EPOCH":"6396","ARG_OF_PERICENTER":"97.8209","RA_OF_ASC_NODE":"77.5578","TLE_LINE2":"2 48432  53.0552  77.5578 0001432  97.8209 262.2942 15.06393646 63961","MEAN_MOTION":"15.06393646","LAUNCH_DATE":"2021-05-09","CLASSIFICATION_TYPE":"U","ECCENTRICITY":"0.00014320","CENTER_NAME":"EARTH","MEAN_ANOMALY":"262.2942","REF_FRAME":"TEME","FILE":"3505946","RCS_SIZE":"LARGE","SITE":"AFETR","NORAD_CAT_ID":"48432","OBJECT_TYPE":"PAYLOAD","SEMIMAJOR_AXIS":"6925.368","MEAN_MOTION_DDOT":"0.0000000000000","PERIOD":"95.593","APOAPSIS":"548.225","OBJECT_ID":"2021-040E","DECAY_DATE":null,"TLE_LINE1":"1 48432U 21040E   22181.88232204  .00001776  00000-0  13813-3 0  9991","ELEMENT_SET_NO":"999","EPOCH":"2022-06-30T21:10:32.624256","INCLINATION":"53.0552","MEAN_MOTION_DOT":"0.00001776","MEAN_ELEMENT_THEORY":"SGP4","BSTAR":"0.00013813000000","COUNTRY_CODE":"US","PERIAPSIS":"546.241","GP_ID":"207176624","TIME_SYSTEM":"UTC","EPHEMERIS_TYPE":"0","OBJECT_NAME":"STARLINK-2680"},{"EPOCH":"2022-06-30T16:41:48.943104","INCLINATION":"53.0569","ELEMENT_SET_NO":"999","PERIOD":"95.592","OBJECT_ID":"2021-040F","APOAPSIS":"548.160","DECAY_DATE":null,"TLE_LINE1":"1 48433U 21040F   22181.69570536  .00001590  00000-0  12565-3 0  9991","PERIAPSIS":"546.295","GP_ID":"207177372","EPHEMERIS_TYPE":"0","TIME_SYSTEM":"UTC","OBJECT_NAME":"STARLINK-2699","MEAN_ELEMENT_THEORY":"SGP4","BSTAR":"0.00012565000000","COUNTRY_CODE":"US","MEAN_MOTION_DOT":"0.00001590","MEAN_ANOMALY":"276.6542","CENTER_NAME":"EARTH","REF_FRAME":"TEME","FILE":"3505946","ECCENTRICITY":"0.00013470","RA_OF_ASC_NODE":"83.2862","TLE_LINE2":"2 48433  53.0569  83.2862 0001347  83.4600 276.6542 15.06395496 63860","MEAN_MOTION":"15.06395496","LAUNCH_DATE":"2021-05-09","CLASSIFICATION_TYPE":"U","REV_AT_EPOCH":"6386","ARG_OF_PERICENTER":"83.4600","MEAN_MOTION_DDOT":"0.0000000000000","OBJECT_TYPE":"PAYLOAD","SEMIMAJOR_AXIS":"6925.362","SITE":"AFETR","RCS_SIZE":"LARGE","NORAD_CAT_ID":"48433"}];
